OBJECT_NAME,OBJECT_ID,EPOCH,MEAN_MOTION,ECCENTRICITY,INCLINATION,RA_OF_ASC_NODE,ARG_OF_PERICENTER,MEAN_ANOMALY,EPHEMERIS_TYPE,CLASSIFICATION_TYPE,NORAD_CAT_ID,ELEMENT_SET_NO,REV_AT_EPOCH,BSTAR,MEAN_MOTION_DOT,MEAN_MOTION_DDOT
HULIANWANG DIGUI-24,2025-086E,2025-08-17T21:19:15.283776,13.24419143,0.0001762,86.5039,55.2708,75.1734,284.9595,0,U,63691,999,1471,0.00018926,9.6e-07,0.0
HULIANWANG DIGUI-25,2025-086F,2025-08-17T21:30:07.710048,13.24418839,0.0001768,86.4978,55.2073,75.62,284.513,0,U,63692,999,1471,0.0002108,1.05e-06,0.0
HULIANWANG DIGUI-26,2025-086G,2025-08-17T22:46:13.358208,13.24421166,0.0001701,86.5027,55.223,74.0657,286.0664,0,U,63693,999,1472,0.0002188,1.09e-06,0.0
HULIANWANG DIGUI-27,2025-086H,2025-08-17T21:41:00.284064,13.2441966,0.0001701,86.4987,55.2211,75.5032,284.629,0,U,63694,999,1471,0.00052659,2.41e-06,0.0
HULIANWANG DIGUI-28,2025-086J,2025-08-17T22:02:45.492576,13.24419054,0.0001649,86.4951,55.189,74.6258,285.5058,0,U,63695,999,1471,0.00030603,1.46e-06,0.0
HULIANWANG DIGUI-29,2025-086K,2025-08-17T21:51:52.509888,13.24419042,0.0001708,86.4979,55.218,78.3133,281.8192,0,U,63696,999,1471,0.00028423,1.37e-06,0.0
STARLINK-33894,2025-087A,2025-08-17T18:40:52.170240,15.39638455,9.64e-05,53.1578,87.1522,78.8108,281.3005,0,U,63697,999,1797,0.00070377,0.00027871,0.0
STARLINK-33922,2025-087B,2025-08-18T00:41:23.534304,15.39643083,9.57e-05,53.1567,85.8708,88.0999,272.0116,0,U,63698,999,1800,0.0012723,0.0005087,0.0
STARLINK-33919,2025-087C,2025-08-18T06:00:04.000320,15.30198635,9.1e-05,53.1591,84.8823,84.0517,35.6537,0,U,63699,999,1804,-0.0009605,-0.00028696,0.0
STARLINK-33908,2025-087D,2025-08-17T21:07:43.031424,15.39640851,7.68e-05,53.158,86.3636,96.4828,263.6264,0,U,63700,999,1799,0.00082502,0.00032765,0.0
STARLINK-33950,2025-087E,2025-08-17T21:41:07.649664,15.39634136,7.18e-05,53.1567,86.5101,69.643,290.4652,0,U,63701,999,1799,0.00085512,0.00033973,0.0
STARLINK-33939,2025-087F,2025-08-17T21:27:44.934912,15.39632146,5.62e-05,53.1572,86.4502,54.4299,305.6758,0,U,63702,999,1799,0.00041274,0.00016151,0.0
STARLINK-33868,2025-087G,2025-08-17T22:00:03.000096,15.30178118,0.0001536,53.1608,86.048,80.6457,193.6748,0,U,63703,999,595,0.00066255,0.00019301,0.0
STARLINK-33937,2025-087H,2025-08-18T00:00:02.999808,15.39582866,0.0001199,53.1585,85.6462,77.5225,303.6386,0,U,63704,999,1801,0.0014991,0.00059962,0.0
STARLINK-33848,2025-087J,2025-08-17T21:01:00.279552,15.39615228,9.75e-05,53.1576,86.3364,62.4388,297.6716,0,U,63705,999,1798,0.00093504,0.00037178,0.0
STARLINK-33995,2025-087K,2025-08-17T21:30:57.507552,15.30205629,0.0001254,53.1575,86.4616,82.0153,278.099,0,U,63706,999,1799,0.00076476,0.00022363,0.0
STARLINK-33982,2025-087L,2025-08-18T06:00:04.000320,15.30203212,0.0001303,53.1605,84.4285,90.7652,255.772,0,U,63707,999,1804,-0.00077375,-0.00023207,0.0
STARLINK-33915,2025-087M,2025-08-18T06:00:04.000320,15.39035291,0.0001031,53.1584,84.6766,76.1706,146.3281,0,U,63708,999,1808,-0.033132,-0.01183086,0.0
STARLINK-33862,2025-087N,2025-08-17T21:14:22.652160,15.39619907,5.21e-05,53.1563,86.3915,69.4307,290.6754,0,U,63709,999,1799,0.00081766,0.00032445,0.0
STARLINK-33920,2025-087P,2025-08-17T21:35:03.077088,15.39084799,0.0001595,53.1584,86.4803,85.0619,275.0567,0,U,63710,999,1799,-0.0067915,-0.00258474,0.0
STARLINK-33580,2025-087Q,2025-08-18T06:00:04.000320,15.30390382,8.99e-05,53.1592,84.8459,88.8802,48.1866,0,U,63711,999,1804,-0.011616,-0.00331487,0.0
STARLINK-33783,2025-087R,2025-08-18T06:00:04.000320,15.32176796,0.0001076,53.1605,84.7213,40.9953,158.8066,0,U,63712,999,1804,-0.088097,-0.02452398,0.0
STARLINK-33773,2025-087S,2025-08-18T00:01:44.423040,15.39780356,0.0002389,53.1602,85.6933,0.0365,0.064,0,U,63713,999,1801,0.0061624,0.00255889,0.0
STARLINK-33745,2025-087T,2025-08-17T20:54:19.001664,15.39617797,7.61e-05,53.1593,86.301,87.8433,272.2659,0,U,63714,999,1799,0.00084715,0.00033633,0.0
STARLINK-33728,2025-087U,2025-08-17T23:55:15.192768,15.39051798,0.0001409,53.1595,85.662,76.1092,284.0069,0,U,63715,999,1801,-0.009592,-0.0035974,0.0
STARLINK-33749,2025-087V,2025-08-18T00:00:02.999808,15.30169609,0.0001393,53.1598,85.936,77.1879,156.8681,0,U,63716,999,1800,0.0016609,0.00049111,0.0
STARLINK-33725,2025-087W,2025-08-17T21:01:29.284032,15.39620207,0.0001053,53.1589,86.3337,84.541,275.5715,0,U,63717,999,1799,0.00093867,0.00037331,0.0
STARLINK-33641,2025-087X,2025-08-18T06:00:04.000320,15.30209363,0.0001095,53.1608,84.589,86.66,178.4411,0,U,63718,999,1804,-0.00095767,-0.00028622,0.0
STARLINK-33727,2025-087Y,2025-08-18T06:00:04.000320,15.39624399,7.8e-05,53.1574,84.8784,90.3549,29.4104,0,U,63719,999,1804,-0.00036961,-0.00015155,0.0
STARLINK-33757,2025-087Z,2025-08-18T06:00:04.000320,15.30203765,0.0001613,53.1608,84.5301,68.9679,225.1302,0,U,63720,999,1804,-0.00067025,-0.0002016,0.0
