HULIANWANG DIGUI-24     
1 63691U 25086E   25229.88837134  .00000096  00000+0  18926-3 0  9991
2 63691  86.5039  55.2708 0001762  75.1734 284.9595 13.24419143 14715
HULIANWANG DIGUI-25     
1 63692U 25086F   25229.89592257  .00000105  00000+0  21080-3 0  9993
2 63692  86.4978  55.2073 0001768  75.6200 284.5130 13.24418839 14713
HULIANWANG DIGUI-26     
1 63693U 25086G   25229.94876572  .00000109  00000+0  21880-3 0  9997
2 63693  86.5027  55.2230 0001701  74.0657 286.0664 13.24421166 14728
HULIANWANG DIGUI-27     
1 63694U 25086H   25229.90347551  .00000241  00000+0  52659-3 0  9999
2 63694  86.4987  55.2211 0001701  75.5032 284.6290 13.24419660 14719
HULIANWANG DIGUI-28     
1 63695U 25086J   25229.91858209  .00000146  00000+0  30603-3 0  9997
2 63695  86.4951  55.1890 0001649  74.6258 285.5058 13.24419054 14713
HULIANWANG DIGUI-29     
1 63696U 25086K   25229.91102442  .00000137  00000+0  28423-3 0  9996
2 63696  86.4979  55.2180 0001708  78.3133 281.8192 13.24419042 14711
STARLINK-33894          
1 63697U 25087A   25229.77838160  .00027871  00000+0  70377-3 0  9994
2 63697  53.1578  87.1522 0000964  78.8108 281.3005 15.39638455 17970
STARLINK-33922          
1 63698U 25087B   25230.02874461  .00050870  00000+0  12723-2 0  9994
2 63698  53.1567  85.8708 0000957  88.0999 272.0116 15.39643083 18001
STARLINK-33919          
1 63699U 25087C   25230.25004630 -.00028696  00000+0 -96050-3 0  9992
2 63699  53.1591  84.8823 0000910  84.0517  35.6537 15.30198635 18040
STARLINK-33908          
1 63700U 25087D   25229.88035916  .00032765  00000+0  82502-3 0  9990
2 63700  53.1580  86.3636 0000768  96.4828 263.6264 15.39640851 17997
STARLINK-33950          
1 63701U 25087E   25229.90356076  .00033973  00000+0  85512-3 0  9993
2 63701  53.1567  86.5101 0000718  69.6430 290.4652 15.39634136 17996
STARLINK-33939          
1 63702U 25087F   25229.89427008  .00016151  00000+0  41274-3 0  9992
2 63702  53.1572  86.4502 0000562  54.4299 305.6758 15.39632146 17994
STARLINK-33868          
1 63703U 25087G   25229.91670139  .00019301  00000+0  66255-3 0  9997
2 63703  53.1608  86.0480 0001536  80.6457 193.6748 15.30178118  5957
STARLINK-33937          
1 63704U 25087H   25230.00003472  .00059962  00000+0  14991-2 0  9996
2 63704  53.1585  85.6462 0001199  77.5225 303.6386 15.39582866 18010
STARLINK-33848          
1 63705U 25087J   25229.87569768  .00037178  00000+0  93504-3 0  9998
2 63705  53.1576  86.3364 0000975  62.4388 297.6716 15.39615228 17987
STARLINK-33995          
1 63706U 25087K   25229.89649893  .00022363  00000+0  76476-3 0  9998
2 63706  53.1575  86.4616 0001254  82.0153 278.0990 15.30205629 17996
STARLINK-33982          
1 63707U 25087L   25230.25004630 -.00023207  00000+0 -77375-3 0  9994
2 63707  53.1605  84.4285 0001303  90.7652 255.7720 15.30203212 18042
STARLINK-33915          
1 63708U 25087M   25230.25004630 -.01183086  00000+0 -33132-1 0  9999
2 63708  53.1584  84.6766 0001031  76.1706 146.3281 15.39035291 18081
STARLINK-33862          
1 63709U 25087N   25229.88498440  .00032445  00000+0  81766-3 0  9990
2 63709  53.1563  86.3915 0000521  69.4307 290.6754 15.39619907 17998
STARLINK-33920          
1 63710U 25087P   25229.89934117 -.00258474  00000+0 -67915-2 0  9992
2 63710  53.1584  86.4803 0001595  85.0619 275.0567 15.39084799 17996
STARLINK-33580          
1 63711U 25087Q   25230.25004630 -.00331487  00000+0 -11616-1 0  9995
2 63711  53.1592  84.8459 0000899  88.8802  48.1866 15.30390382 18043
STARLINK-33783          
1 63712U 25087R   25230.25004630 -.02452398  00000+0 -88097-1 0  9990
2 63712  53.1605  84.7213 0001076  40.9953 158.8066 15.32176796 18044
STARLINK-33773          
1 63713U 25087S   25230.00120860  .00255889  00000+0  61624-2 0  9998
2 63713  53.1602  85.6933 0002389   0.0365   0.0640 15.39780356 18016
STARLINK-33745          
1 63714U 25087T   25229.87105326  .00033633  00000+0  84715-3 0  9990
2 63714  53.1593  86.3010 0000761  87.8433 272.2659 15.39617797 17998
STARLINK-33728          
1 63715U 25087U   25229.99670362 -.00359740  00000+0 -95920-2 0  9992
2 63715  53.1595  85.6620 0001409  76.1092 284.0069 15.39051798 18015
STARLINK-33749          
1 63716U 25087V   25230.00003472  .00049111  00000+0  16609-2 0  9992
2 63716  53.1598  85.9360 0001393  77.1879 156.8681 15.30169609 18006
STARLINK-33725          
1 63717U 25087W   25229.87603338  .00037331  00000+0  93867-3 0  9996
2 63717  53.1589  86.3337 0001053  84.5410 275.5715 15.39620207 17991
STARLINK-33641          
1 63718U 25087X   25230.25004630 -.00028622  00000+0 -95767-3 0  9997
2 63718  53.1608  84.5890 0001095  86.6600 178.4411 15.30209363 18046
STARLINK-33727          
1 63719U 25087Y   25230.25004630 -.00015155  00000+0 -36961-3 0  9996
2 63719  53.1574  84.8784 0000780  90.3549  29.4104 15.39624399 18041
STARLINK-33757          
1 63720U 25087Z   25230.25004630 -.00020160  00000+0 -67025-3 0  9995
2 63720  53.1608  84.5301 0001613  68.9679 225.1302 15.30203765 18040
